NORAD_CAT_ID,OBJECT_NAME,OBJECT_TYPE,EPOCH,MEAN_MOTION,ECCENTRICITY,INCLINATION,RA_OF_ASC_NODE,ARG_OF_PERICENTER,MEAN_ANOMALY,BSTAR,MEAN_MOTION_DOT,MEAN_MOTION_DDOT,TLE_LINE0,TLE_LINE1,TLE_LINE2,SEMIMAJOR_AXIS,PERIOD,APOGEE,PERIGEE,DECAYED
53139.0,STARLINK-4185,PAYLOAD,2023-08-08 08:11:44,15.08858891,9.53e-05,53.2164,93.4651,107.5533,252.5563,0.00098483,0.00015428,0.0,0 STARLINK-4185,1 53139U 22083H   23220.34148938  .00015428  00000-0  98483-3 0  9990,2 53139  53.2164  93.4651 0000953 107.5533 252.5563 15.08858891 59288,6917.823,95.436,540.347,539.028,0.0
53139.0,STARLINK-4185,PAYLOAD,2023-08-08 17:44:03,15.08848337,9.56e-05,53.216,91.6817,112.295,247.8144,0.00025829,3.826e-05,0.0,0 STARLINK-4185,1 53139U 22083H   23220.73892921  .00003826  00000-0  25829-3 0  9994,2 53139  53.2160  91.6817 0000956 112.2950 247.8144 15.08848337 59340,6917.855,95.437,540.381,539.059,0.0
53139.0,STARLINK-4185,PAYLOAD,2023-08-09 11:13:17,15.08848053,0.0001294,53.2143,88.4123,90.2514,269.8626,0.00019478,2.814e-05,0.0,0 STARLINK-4185,1 53139U 22083H   23221.46756808  .00002814  00000-0  19478-3 0  9997,2 53139  53.2143  88.4123 0001294  90.2514 269.8626 15.08848053 59458,6917.856,95.437,540.616,538.826,0.0
53139.0,STARLINK-4185,PAYLOAD,2023-08-10 09:28:42,15.0883517,9.7e-05,53.2158,84.2486,89.958,270.1523,0.0001318,1.81e-05,0.0,0 STARLINK-4185,1 53139U 22083H   23222.39493358  .00001810  00000-0  13180-3 0  9997,2 53139  53.2158  84.2486 0000970  89.9580 270.1523 15.08835170 59590,6917.895,95.438,540.431,539.089,0.0
53139.0,STARLINK-4185,PAYLOAD,2023-08-11 01:22:31,15.08869233,7.09e-05,53.2162,81.275,78.8278,281.2794,-0.00043341,-7.184e-05,0.0,0 STARLINK-4185,1 53139U 22083H   23223.05731187 -.00007184  00000-0 -43341-3 0  9990,2 53139  53.2162  81.2750 0000709  78.8278 281.2794 15.08869233 59698,6917.791,95.436,540.147,539.166,0.0
53139.0,STARLINK-4185,PAYLOAD,2023-08-11 07:44:06,15.0883611,8.21e-05,53.2161,80.0855,89.8674,270.2412,0.00013344,1.836e-05,0.0,0 STARLINK-4185,1 53139U 22083H   23223.32229202  .00001836  00000-0  13344-3 0  9996,2 53139  53.2161  80.0855 0000821  89.8674 270.2412 15.08836110 59735,6917.892,95.438,540.325,539.189,0.0
53139.0,STARLINK-4185,PAYLOAD,2023-08-12 09:10:16,15.08830327,9.23e-05,53.2156,75.327,97.816,262.2937,-5.3245e-05,-1.135e-05,0.0,0 STARLINK-4185,1 53139U 22083H   23224.38213625 -.00001135  00000-0 -53245-4 0  9994,2 53139  53.2156  75.3270 0000923  97.8160 262.2937 15.08830327 59893,6917.91,95.438,540.413,539.136,0.0
53139.0,STARLINK-4185,PAYLOAD,2023-08-12 20:17:59,15.08811865,9.39e-05,53.2155,73.2461,84.1248,275.9851,-0.00017218,-3.025e-05,0.0,0 STARLINK-4185,1 53139U 22083H   23224.84582919 -.00003025  00000-0 -17218-3 0  9999,2 53139  53.2155  73.2461 0000939  84.1248 275.9851 15.08811865 59964,6917.966,95.439,540.481,539.182,0.0
53139.0,STARLINK-4185,PAYLOAD,2023-08-13 18:33:24,15.08850687,0.000102,53.2159,69.0839,51.7119,308.3965,0.0014061,0.00022167,0.0,0 STARLINK-4185,1 53139U 22083H   23225.77319540  .00022167  00000-0  14061-2 0  9998,2 53139  53.2159  69.0839 0001020  51.7119 308.3965 15.08850687 60109,6917.848,95.437,540.418,539.007,0.0
53139.0,STARLINK-4185,PAYLOAD,2023-08-14 16:48:46,15.08878288,8.58e-05,53.2159,64.9194,68.668,291.4404,0.001195,0.00018802,0.0,0 STARLINK-4185,1 53139U 22083H   23226.70053934  .00018802  00000-0  11950-2 0  9999,2 53139  53.2159  64.9194 0000858  68.6680 291.4404 15.08878288 60247,6917.763,95.435,540.222,539.035,0.0
53139.0,STARLINK-4185,PAYLOAD,2023-08-15 16:39:32,15.08862995,5.52e-05,53.2164,60.4577,150.8848,209.2175,0.00086939,0.00013584,0.0,0 STARLINK-4185,1 53139U 22083H   23227.69412808  .00013584  00000-0  86939-3 0  9999,2 53139  53.2164  60.4577 0000552 150.8848 209.2175 15.08862995 60396,6917.81,95.436,540.057,539.293,0.0
53139.0,STARLINK-4185,PAYLOAD,2023-08-15 23:01:05,15.08853971,7.07e-05,53.2165,59.2679,82.3586,277.7486,0.00021863,3.195e-05,0.0,0 STARLINK-4185,1 53139U 22083H   23227.95908844  .00003195  00000-0  21863-3 0  9990,2 53139  53.2165  59.2679 0000707  82.3586 277.7486 15.08853971 60430,6917.838,95.437,540.192,539.214,0.0
53139.0,STARLINK-4185,PAYLOAD,2023-08-16 14:54:56,15.08840459,0.0001511,53.2116,56.2969,106.7484,253.3674,-6.812e-05,-1.372e-05,0.0,0 STARLINK-4185,1 53139U 22083H   23228.62149266 -.00001372  00000-0 -68120-4 0  9995,2 53139  53.2116  56.2969 0001511 106.7484 253.3674 15.08840459 60534,6917.879,95.438,540.789,538.699,0.0
53139.0,STARLINK-4185,PAYLOAD,2023-08-18 00:18:02,15.08854633,0.0001062,53.215,50.0502,87.3641,272.7472,0.00038699,5.879e-05,0.0,0 STARLINK-4185,1 53139U 22083H   23230.01252855  .00005879  00000-0  38699-3 0  9991,2 53139  53.2150  50.0502 0001062  87.3641 272.7472 15.08854633 60740,6917.836,95.437,540.435,538.966,0.0
53139.0,STARLINK-4185,PAYLOAD,2023-08-18 05:04:12,15.08830401,0.0001572,53.2144,49.1588,79.8184,280.2985,-7.4623e-05,-1.475e-05,0.0,0 STARLINK-4185,1 53139U 22083H   23230.21125858 -.00001475  00000-0 -74623-4 0  9993,2 53139  53.2144  49.1588 0001572  79.8184 280.2985 15.08830401 60773,6917.91,95.438,540.862,538.687,0.0
53139.0,STARLINK-4185,PAYLOAD,2023-08-19 06:30:22,15.08839061,0.0001094,53.2158,44.4,76.4171,283.6943,0.00013988,1.939e-05,0.0,0 STARLINK-4185,1 53139U 22083H   23231.27109913  .00001939  00000-0  13988-3 0  9993,2 53139  53.2158  44.4000 0001094  76.4171 283.6943 15.08839061 60933,6917.883,95.438,540.505,538.991,0.0
53139.0,STARLINK-4185,PAYLOAD,2023-08-20 17:28:52,15.0884918,9.84e-05,53.2166,37.8582,67.2803,292.8293,0.00041077,6.257e-05,0.0,0 STARLINK-4185,1 53139U 22083H   23232.72838001  .00006257  00000-0  41077-3 0  9999,2 53139  53.2166  37.8582 0000984  67.2803 292.8293 15.08849180 61158,6917.852,95.437,540.398,539.037,0.0
53139.0,STARLINK-4185,PAYLOAD,2023-08-21 10:58:06,15.08837674,8.37e-05,53.2166,34.5862,98.3892,261.7195,0.00010736,1.421e-05,0.0,0 STARLINK-4185,1 53139U 22083H   23233.45702205  .00001421  00000-0  10736-3 0  9992,2 53139  53.2166  34.5862 0000837  98.3892 261.7195 15.08837674 61266,6917.887,95.438,540.332,539.173,0.0
53139.0,STARLINK-4185,PAYLOAD,2023-08-23 10:39:40,15.08849465,9.75e-05,53.2172,25.6661,82.4202,277.6901,-0.00021581,-3.722e-05,0.0,0 STARLINK-4185,1 53139U 22083H   23235.44421671 -.00003722  00000-0 -21581-3 0  9996,2 53139  53.2172  25.6661 0000975  82.4202 277.6901 15.08849465 61568,6917.851,95.437,540.391,539.042,0.0
53139.0,STARLINK-4185,PAYLOAD,2023-08-24 12:05:51,15.08835129,0.0001007,53.2185,20.9084,82.8085,277.3021,2.4467e-05,1.02e-06,0.0,0 STARLINK-4185,1 53139U 22083H   23236.50406503  .00000102  00000-0  24467-4 0  9995,2 53139  53.2185  20.9084 0001007  82.8085 277.3021 15.08835129 61729,6917.895,95.438,540.457,539.064,0.0
53139.0,STARLINK-4185,PAYLOAD,2023-08-25 13:32:00,15.08842248,0.0001815,53.2198,16.1421,158.0686,202.0384,2.6834e-05,1.39e-06,0.0,0 STARLINK-4185,1 53139U 22083H   23237.56389722  .00000139  00000-0  26834-4 0  9995,2 53139  53.2198  16.1421 0001815 158.0686 202.0384 15.08842248 61250,6917.874,95.437,540.994,538.483,0.0
53139.0,STARLINK-4185,PAYLOAD,2023-08-25 18:18:10,15.08844668,0.0001075,53.2181,15.2562,104.0541,256.0571,9.119e-05,1.164e-05,0.0,0 STARLINK-4185,1 53139U 22083H   23237.76262060  .00001164  00000-0  91190-4 0  9998,2 53139  53.2181  15.2562 0001075 104.0541 256.0571 15.08844668 61915,6917.866,95.437,540.475,538.987,0.0
53139.0,STARLINK-4185,PAYLOAD,2023-08-26 08:36:39,15.08835931,0.0001277,53.2169,12.5815,122.079,238.0326,4.308e-05,3.98e-06,0.0,0 STARLINK-4185,1 53139U 22083H   23238.35878559  .00000398  00000-0  43080-4 0  9993,2 53139  53.2169  12.5815 0001277 122.0790 238.0326 15.08835931 62004,6917.893,95.438,540.641,538.874,0.0
53139.0,STARLINK-4185,PAYLOAD,2023-08-26 11:47:25,15.08839192,0.0001363,53.2176,11.9871,138.7225,221.3871,9.8288e-05,1.277e-05,0.0,0 STARLINK-4185,1 53139U 22083H   23238.49126528  .00001277  00000-0  98288-4 0  9997,2 53139  53.2176  11.9871 0001363 138.7225 221.3871 15.08839192 61394,6917.883,95.438,540.691,538.805,0.0
53139.0,STARLINK-4185,PAYLOAD,2023-08-26 16:33:34,15.08844481,9.57e-05,53.2181,11.0967,95.7664,264.3438,0.00014718,2.056e-05,0.0,0 STARLINK-4185,1 53139U 22083H   23238.68998341  .00002056  00000-0  14718-3 0  9999,2 53139  53.2181  11.0967 0000957  95.7664 264.3438 15.08844481 61421,6917.867,95.437,540.394,539.07,0.0
53139.0,STARLINK-4185,PAYLOAD,2023-08-27 03:41:16,15.08839592,0.0001068,53.2176,9.0151,79.6499,280.4614,6.0657e-05,6.78e-06,0.0,0 STARLINK-4185,1 53139U 22083H   23239.15366697  .00000678  00000-0  60657-4 0  9997,2 53139  53.2176   9.0151 0001068  79.6499 280.4614 15.08839592 61497,6917.882,95.438,540.485,539.008,0.0
53139.0,STARLINK-4185,PAYLOAD,2023-08-27 14:48:58,15.08845743,9.89e-05,53.2184,6.9317,109.174,250.936,9.5304e-05,1.23e-05,0.0,0 STARLINK-4185,1 53139U 22083H   23239.61734325  .00001230  00000-0  95304-4 0  9997,2 53139  53.2184   6.9317 0000989 109.1740 250.9360 15.08845743 62198,6917.863,95.437,540.412,539.044,0.0
53139.0,STARLINK-4185,PAYLOAD,2023-08-28 01:56:40,15.08841449,9.37e-05,53.2174,4.8511,92.8795,267.2304,7.5974e-05,9.22e-06,0.0,0 STARLINK-4185,1 53139U 22083H   23240.08102588  .00000922  00000-0  75974-4 0  9998,2 53139  53.2174   4.8511 0000937  92.8795 267.2304 15.08841449 62267,6917.876,95.437,540.389,539.093,0.0
53139.0,STARLINK-4185,PAYLOAD,2023-08-28 14:39:46,15.08835472,0.0001016,53.2174,2.4724,88.5175,271.5933,2.0636e-05,4.1e-07,0.0,0 STARLINK-4185,1 53139U 22083H   23240.61095114  .00000041  00000-0  20636-4 0  9990,2 53139  53.2174   2.4724 0001016  88.5175 271.5933 15.08835472 62344,6917.894,95.438,540.462,539.056,0.0
53139.0,STARLINK-4185,PAYLOAD,2023-08-29 14:30:32,15.0884495,0.0001067,53.2184,358.0123,85.3669,274.7445,0.00012539,1.709e-05,0.0,0 STARLINK-4185,1 53139U 22083H   23241.60454510  .00001709  00000-0  12539-3 0  9993,2 53139  53.2184 358.0123 0001067  85.3669 274.7445 15.08844950 62497,6917.865,95.437,540.468,538.992,0.0
